category_id,name,phone,address,longitude,latitude,detail
3,소미연, 02-413-8887, 서울특별시 송파구 석촌동 276-1, 127.10727916595505, 37.50098393945704, 소미연 매장 설명입니다. 여러분 남은 기간동안 화이팅 합시다. 치소맥 먹고 싶네요~
3,금문도, 02-420-3834, 서울특별시 송파구 석촌동 297-1, 127.1089512624267, 37.50113170351656, 금문도 매장 설명입니다. 여러분 남은 기간동안 화이팅 합시다. 치소맥 먹고 싶네요~
3,달인각, 02-412-4881, 서울특별시 송파구 석촌동 23-2, 127.09912188546647, 37.50594100885199, 달인각 매장 설명입니다. 여러분 남은 기간동안 화이팅 합시다. 치소맥 먹고 싶네요~
3,만당홍, 02-415-5835, 서울특별시 송파구 석촌동 176, 127.10485967643231, 37.50566018084081, 만당홍 매장 설명입니다. 여러분 남은 기간동안 화이팅 합시다. 치소맥 먹고 싶네요~
3,중국 전통 레스토랑 팬다, 02-422-3487, 서울특별시 송파구 석촌동 2-7, 127.09744478457527, 37.505261442190886, 중국 전통 레스토랑 팬다 매장 설명입니다. 여러분 남은 기간동안 화이팅 합시다. 치소맥 먹고 싶네요~
3,샹하이, 02-412-4881, 서울특별시 송파구 석촌동 23-2, 127.09912166925994, 37.505959028389626, 샹하이 매장 설명입니다. 여러분 남은 기간동안 화이팅 합시다. 치소맥 먹고 싶네요~
3,홍짜장 석촌점, 02-412-9596, 서울특별시 송파구 석촌동 273-5, 127.10685071819636, 37.500872578571574, 홍짜장 석촌점 매장 설명입니다. 여러분 남은 기간동안 화이팅 합시다. 치소맥 먹고 싶네요~
3,또와꼬치, 02-2202-4064, 서울특별시 송파구 석촌동 274-14, 127.10553875370897, 37.49992556423723, 또와꼬치 매장 설명입니다. 여러분 남은 기간동안 화이팅 합시다. 치소맥 먹고 싶네요~
3,옛날맛짜장, 02-425-3533, 서울특별시 송파구 석촌동 295-10, 127.10870725453555, 37.501679512459575, 옛날맛짜장 매장 설명입니다. 여러분 남은 기간동안 화이팅 합시다. 치소맥 먹고 싶네요~
3,도원각, 02-412-8685, 서울특별시 송파구 석촌동 175-9, 127.10577821226914, 37.50545988347367, 도원각 매장 설명입니다. 여러분 남은 기간동안 화이팅 합시다. 치소맥 먹고 싶네요~
3,마음에드는양꼬치, 02-421-6029, 서울특별시 송파구 석촌동 276-5 2층, 127.10791010311019, 37.50118693181978, 마음에드는양꼬치 매장 설명입니다. 여러분 남은 기간동안 화이팅 합시다. 치소맥 먹고 싶네요~
1,BHC치킨 석촌점, 050-4898-9137, 서울특별시 송파구 석촌동 150-1 1층, 127.10189649313747, 37.50470062141034, BHC치킨 석촌점 매장 설명입니다. 여러분 남은 기간동안 화이팅 합시다. 치소맥 먹고 싶네요~
1,BBQ 석촌2점, 050-7457-8537, 서울특별시 송파구 석촌동 156-6, 127.1012812464661, 37.50602050662421, BBQ 석촌2점 매장 설명입니다. 여러분 남은 기간동안 화이팅 합시다. 치소맥 먹고 싶네요~
1,또래오래 송파석촌점, 050-4898-9114, 서울특별시 송파구 석촌동 263-5, 127.10383185633975, 37.502696923504594, 또래오래 송파석촌점 매장 설명입니다. 여러분 남은 기간동안 화이팅 합시다. 치소맥 먹고 싶네요~
1,네네치킨 석촌점, 050-4457-8060, 서울특별시 송파구 석촌동 251-8, 127.10253195574421, 37.49979466683951, 네네치킨 석촌점 매장 설명입니다. 여러분 남은 기간동안 화이팅 합시다. 치소맥 먹고 싶네요~
1,그릴킹, 02-422-9255, 서울특별시 송파구 석촌동 240-6, 127.10226464233077, 37.499450235866675, 그릴킹 매장 설명입니다. 여러분 남은 기간동안 화이팅 합시다. 치소맥 먹고 싶네요~
1,굽네치킨 석촌점, 02-421-9294, 서울특별시 송파구 석촌동 166-12, 127.10411768029391, 37.50623124242861, 굽네치킨 석촌점 매장 설명입니다. 여러분 남은 기간동안 화이팅 합시다. 치소맥 먹고 싶네요~
1,고가네살로만치킨, 02-423-1464, 서울특별시 송파구 석촌동 266-13, 127.10628650988366, 37.501715314686656, 고가네살로만치킨 매장 설명입니다. 여러분 남은 기간동안 화이팅 합시다. 치소맥 먹고 싶네요~
1,진미쌀통닭, 050-8028-5210, 서울특별시 송파구 석촌동 5, 127.09783168565232, 37.50506616022097, 진미쌀통닭 매장 설명입니다. 여러분 남은 기간동안 화이팅 합시다. 치소맥 먹고 싶네요~
1,맥시칸치킨 가락점, 02-418-8075, 서울특별시 송파구 석촌동 273-19, 127.10691379794807, 37.50032340784247, 맥시칸치킨 가락점 매장 설명입니다. 여러분 남은 기간동안 화이팅 합시다. 치소맥 먹고 싶네요~
1,피자나라치킨공주 잠실1호점, 02-3432-9528, 서울특별시 송파구 석촌동 220-2, 127.09870429480563, 37.49926998659256, 피자나라치킨공주 잠실1호점 매장 설명입니다. 여러분 남은 기간동안 화이팅 합시다. 치소맥 먹고 싶네요~
1,두기두기치킨호프, 02-413-6898, 서울특별시 송파구 석촌동 203, 127.10272616964318, 37.50531062676705, 두기두기치킨호프 매장 설명입니다. 여러분 남은 기간동안 화이팅 합시다. 치소맥 먹고 싶네요~
1,치킨뱅이 석촌호수점, 02-412-0490, 서울특별시 송파구 석촌동 1-1 신동아로잔뷰 1층, 127.09797410560788, 37.506391803163744, 치킨뱅이 석촌호수점 매장 설명입니다. 여러분 남은 기간동안 화이팅 합시다. 치소맥 먹고 싶네요~
1,탁꼬치킨, 02-421-5933, 서울특별시 송파구 석촌동 178, 127.10434290425121, 37.506314043107736, 탁꼬치킨 매장 설명입니다. 여러분 남은 기간동안 화이팅 합시다. 치소맥 먹고 싶네요~
1,교촌치킨 석촌점, 02-412-0799, 서울특별시 송파구 석촌동 14-13, 127.09771227180383, 37.50276754802879, 교촌치킨 석촌점 매장 설명입니다. 여러분 남은 기간동안 화이팅 합시다. 치소맥 먹고 싶네요~
1,작살치킨, 02-418-5413, 서울특별시 송파구 석촌동 180, 127.10386058969021, 37.506923111042966, 작살치킨 매장 설명입니다. 여러분 남은 기간동안 화이팅 합시다. 치소맥 먹고 싶네요~
1,피자레또24시 송파점, 02-2202-4555, 서울특별시 송파구 석촌동 210-20, 127.09720169747484, 37.50196170990717, 피자레또24시 송파점 매장 설명입니다. 여러분 남은 기간동안 화이팅 합시다. 치소맥 먹고 싶네요~
1,감통반 석촌점, 02-419-6498, 서울특별시 송파구 석촌동 291-15, 127.10710751262609, 37.50305508282545, 감통반 석촌점 매장 설명입니다. 여러분 남은 기간동안 화이팅 합시다. 치소맥 먹고 싶네요~
1,호치킨 석촌점, 02-2202-8892, 서울특별시 송파구 석촌동 293-3, 127.10766958094183, 37.50239253890019, 호치킨 석촌점 매장 설명입니다. 여러분 남은 기간동안 화이팅 합시다. 치소맥 먹고 싶네요~
1,작살치킨 석촌본점, 02-415-5413, 서울특별시 송파구 석촌동 171-9, 127.10478319562387, 37.5054343372312, 작살치킨 석촌본점 매장 설명입니다. 여러분 남은 기간동안 화이팅 합시다. 치소맥 먹고 싶네요~
1,할로할로, 02-2202-7792, 서울특별시 송파구 석촌동 293 1층, 127.10880740561166, 37.50277054996617, 할로할로 매장 설명입니다. 여러분 남은 기간동안 화이팅 합시다. 치소맥 먹고 싶네요~
1,사바사바치킨, 02-2203-7292, 서울특별시 송파구 석촌동 2-18, 127.09736275767982, 37.50455799016363, 사바사바치킨 매장 설명입니다. 여러분 남은 기간동안 화이팅 합시다. 치소맥 먹고 싶네요~
1,쌀쌀맞은닭 석촌점, 02-2042-4488, 서울특별시 송파구 석촌동 181-4, 127.10372272261928, 37.50710227850599, 쌀쌀맞은닭 석촌점 매장 설명입니다. 여러분 남은 기간동안 화이팅 합시다. 치소맥 먹고 싶네요~
1,천하일미닭강정 엄마손점, 02-419-7775, 서울특별시 송파구 석촌동 277-2, 127.1075889595204, 37.50156295528628, 천하일미닭강정 엄마손점 매장 설명입니다. 여러분 남은 기간동안 화이팅 합시다. 치소맥 먹고 싶네요~
1,BBQ 석촌점, 02-412-2255, 서울특별시 송파구 석촌동 240-6, 127.10235478753255, 37.49947795165219, BBQ 석촌점 매장 설명입니다. 여러분 남은 기간동안 화이팅 합시다. 치소맥 먹고 싶네요~
1,그린맘치킨, 1577-5788, 서울특별시 송파구 석촌동 297-2, 127.10926662667588, 37.50124220548452, 그린맘치킨 매장 설명입니다. 여러분 남은 기간동안 화이팅 합시다. 치소맥 먹고 싶네요~
1,치킨방앗간 석촌점, 02-413-9288, 서울특별시 송파구 석촌동 275-12, 127.10830890704656, 37.50093764125088, 치킨방앗간 석촌점 매장 설명입니다. 여러분 남은 기간동안 화이팅 합시다. 치소맥 먹고 싶네요~
1,멕시칸치킨 가락시영점, 02-412-7622, 서울특별시 송파구 석촌동 252-5, 127.10382016726669, 37.49988552712621, 멕시칸치킨 가락시영점 매장 설명입니다. 여러분 남은 기간동안 화이팅 합시다. 치소맥 먹고 싶네요~
1,통큰치킨, 02-470-9397, 서울특별시 송파구 석촌동 255 1층, 127.10422663224549, 37.499942668908254, 통큰치킨 매장 설명입니다. 여러분 남은 기간동안 화이팅 합시다. 치소맥 먹고 싶네요~
1,치킨도시, 02-3431-2080, 서울특별시 송파구 석촌동 235, 127.09908433877243, 37.502471644008395, 치킨도시 매장 설명입니다. 여러분 남은 기간동안 화이팅 합시다. 치소맥 먹고 싶네요~
1,코리안숯불바베큐, 02-3431-9294, 서울특별시 송파구 석촌동 273-12 영신빌딩 1층, 127.1052506711431, 37.5003739161679, 코리안숯불바베큐 매장 설명입니다. 여러분 남은 기간동안 화이팅 합시다. 치소맥 먹고 싶네요~
1,KFC 석촌역점, 02-416-3337, 서울특별시 송파구 석촌동 286-5 대준빌딩, 127.10688476713321, 37.50466629896045, KFC 석촌역점 매장 설명입니다. 여러분 남은 기간동안 화이팅 합시다. 치소맥 먹고 싶네요~
1,가마로강정 석촌점, 02-412-0375, 서울특별시 송파구 석촌동 295-11, 127.10830109739021, 37.50159535655268, 가마로강정 석촌점 매장 설명입니다. 여러분 남은 기간동안 화이팅 합시다. 치소맥 먹고 싶네요~
1,치킨투투앤닭발, 02-424-5965, 서울특별시 송파구 석촌동 10-6, 127.09734772081755, 37.503927133896056, 치킨투투앤닭발 매장 설명입니다. 여러분 남은 기간동안 화이팅 합시다. 치소맥 먹고 싶네요~
1,오븐치킨과호프, 02-2042-3003, 서울특별시 송파구 석촌동 273-5 102호, 127.10669303857148, 37.50081732449611, 오븐치킨과호프 매장 설명입니다. 여러분 남은 기간동안 화이팅 합시다. 치소맥 먹고 싶네요~
1,빈스, 050-4570-3854, 서울특별시 송파구 석촌동 150-1 1층, 127.10192999006665, 37.504736918074826, 빈스 매장 설명입니다. 여러분 남은 기간동안 화이팅 합시다. 치소맥 먹고 싶네요~
1,신화푸드, 050-8028-5244, 서울특별시 송파구 석촌동 274-14, 127.1055049351758, 37.49991629795355, 신화푸드 매장 설명입니다. 여러분 남은 기간동안 화이팅 합시다. 치소맥 먹고 싶네요~
1,88포차, 02-6408-9881, 서울특별시 송파구 석촌동 6-8, 127.09848010581638, 37.50475573239074, 88포차 매장 설명입니다. 여러분 남은 기간동안 화이팅 합시다. 치소맥 먹고 싶네요~
1,바삭바삭, 02-6401-8484, 서울특별시 송파구 석촌동 275-14, 127.10869490254399, 37.50081440130291, 바삭바삭 매장 설명입니다. 여러분 남은 기간동안 화이팅 합시다. 치소맥 먹고 싶네요~
1,을지로골뱅이, 02-2042-2288, 서울특별시 송파구 석촌동 11-20, 127.09869481294172, 37.50382927711678, 을지로골뱅이 매장 설명입니다. 여러분 남은 기간동안 화이팅 합시다. 치소맥 먹고 싶네요~
1,위드, 02-420-1988, 서울특별시 송파구 석촌동 297-17, 127.11105437760142, 37.50021943152184, 위드 매장 설명입니다. 여러분 남은 기간동안 화이팅 합시다. 치소맥 먹고 싶네요~
1,밀러타임 석촌점, 02-415-9911, 서울특별시 송파구 석촌동 1-1 신동아로잔뷰 106호, 127.09777150781039, 37.50630916293407, 밀러타임 석촌점 매장 설명입니다. 여러분 남은 기간동안 화이팅 합시다. 치소맥 먹고 싶네요~
1,피쉬앤그릴 석촌역점, 02-413-7334, 서울특별시 송파구 석촌동 282-2 3번지, 127.10658515052788, 37.503231351371305, 피쉬앤그릴 석촌역점 매장 설명입니다. 여러분 남은 기간동안 화이팅 합시다. 치소맥 먹고 싶네요~
1,비어캐빈 송파사거리점, 070-8658-2413, 서울특별시 송파구 석촌동 272-26, 127.1059579696988, 37.50081177210501, 비어캐빈 송파사거리점 매장 설명입니다. 여러분 남은 기간동안 화이팅 합시다. 치소맥 먹고 싶네요~
2,토마토피자, 050-4898-9194, 서울특별시 송파구 석촌동 274-6, 127.10666382807992, 37.50042063732552, 토마토피자 매장 설명입니다. 여러분 남은 기간동안 화이팅 합시다. 치소맥 먹고 싶네요~
2,피자나라치킨공주 잠실1호점, 02-3432-9528, 서울특별시 송파구 석촌동 220-2, 127.09870429480563, 37.49926998659256, 피자나라치킨공주 잠실1호점 매장 설명입니다. 여러분 남은 기간동안 화이팅 합시다. 치소맥 먹고 싶네요~
2,피자헛 석촌호수점, 070-7843-2986, 서울특별시 송파구 석촌동 1-3 2층, 127.09863092589745, 37.50632472464583, 피자헛 석촌호수점 매장 설명입니다. 여러분 남은 기간동안 화이팅 합시다. 치소맥 먹고 싶네요~
2,피자에땅 잠실점, 02-412-1551, 서울특별시 송파구 석촌동 2-5 은주빌딩 1층, 127.09746567056943, 37.50540577099958, 피자에땅 잠실점 매장 설명입니다. 여러분 남은 기간동안 화이팅 합시다. 치소맥 먹고 싶네요~
2,비어인 더크레이지토마토피자, 02-416-9555, 서울특별시 송파구 석촌동 53-3 1층 103호, 127.10099732178364, 37.50611746593277, 비어인 더크레이지토마토피자 매장 설명입니다. 여러분 남은 기간동안 화이팅 합시다. 치소맥 먹고 싶네요~
2,빈스, 050-4570-3854, 서울특별시 송파구 석촌동 150-1 1층, 127.10192999006665, 37.504736918074826, 빈스 매장 설명입니다. 여러분 남은 기간동안 화이팅 합시다. 치소맥 먹고 싶네요~
2,베네딕숑쌀피자 송파본점, 02-418-3378, 서울특별시 송파구 석촌동 251-8, 127.10248704442375, 37.499767294340764, 베네딕숑쌀피자 송파본점 매장 설명입니다. 여러분 남은 기간동안 화이팅 합시다. 치소맥 먹고 싶네요~
2,피자스쿨 석촌점, 02-423-8210, 서울특별시 송파구 석촌동 174-15 1층, 127.10575595768398, 37.50637879608659, 피자스쿨 석촌점 매장 설명입니다. 여러분 남은 기간동안 화이팅 합시다. 치소맥 먹고 싶네요~
2,몽뜨화덕피자카페, 070-8816-3234, 서울특별시 송파구 석촌동 77-5 송원빌딩 1층, 127.10384728918513, 37.50424686339521, 몽뜨화덕피자카페 매장 설명입니다. 여러분 남은 기간동안 화이팅 합시다. 치소맥 먹고 싶네요~
2,도미노피자 석촌점, 02-1577-3082, 서울특별시 송파구 석촌동 14-11, 127.09833405159034, 37.50279030966858, 도미노피자 석촌점 매장 설명입니다. 여러분 남은 기간동안 화이팅 합시다. 치소맥 먹고 싶네요~
2,피자마루 석촌엄마손점, 02-415-1082, 서울특별시 송파구 석촌동 296, 127.10853005575851, 37.501362806241374, 피자마루 석촌엄마손점 매장 설명입니다. 여러분 남은 기간동안 화이팅 합시다. 치소맥 먹고 싶네요~
2,통큰피자, 02-473-6678, 서울특별시 송파구 석촌동 255 1층, 127.10422663224549, 37.499942668908254, 통큰피자 매장 설명입니다. 여러분 남은 기간동안 화이팅 합시다. 치소맥 먹고 싶네요~
2,피자파파, 02-484-1179, 서울특별시 송파구 석촌동 255 1층, 127.10422663224549, 37.499942668908254, 피자파파 매장 설명입니다. 여러분 남은 기간동안 화이팅 합시다. 치소맥 먹고 싶네요~
2,피자레또24시 송파점, 02-2202-4555, 서울특별시 송파구 석촌동 210-20, 127.09720169747484, 37.50196170990717, 피자레또24시 송파점 매장 설명입니다. 여러분 남은 기간동안 화이팅 합시다. 치소맥 먹고 싶네요~
2,라포튜나, 070-8887-5511, 서울특별시 송파구 석촌동 1 그랜드빌딩 7층, 127.09751171297319, 37.506280149583326, 라포튜나 매장 설명입니다. 여러분 남은 기간동안 화이팅 합시다. 치소맥 먹고 싶네요~
2,루나리치 잠실석촌호수점, 02-416-1607, 서울특별시 송파구 석촌동 1-1, 127.09812156288604, 37.50635688502167, 루나리치 잠실석촌호수점 매장 설명입니다. 여러분 남은 기간동안 화이팅 합시다. 치소맥 먹고 싶네요~
3,롯데호텔월드 도림, 02-411-7800, 서울특별시 송파구 잠실동 40-1 32층, 127.09801679058238, 37.51131190908788, 롯데호텔월드 도림 매장 설명입니다. 여러분 남은 기간동안 화이팅 합시다. 치소맥 먹고 싶네요~
3,유원, 02-416-7465, 서울특별시 송파구 잠실동 196-8, 127.07952061820956, 37.508718557938536, 유원 매장 설명입니다. 여러분 남은 기간동안 화이팅 합시다. 치소맥 먹고 싶네요~
3,24시귀빈중화요리, 02-416-7516, 서울특별시 송파구 잠실동 176-7, 127.0796202835584, 37.510737701884345, 24시귀빈중화요리 매장 설명입니다. 여러분 남은 기간동안 화이팅 합시다. 치소맥 먹고 싶네요~
3,천지천, 02-419-0090, 서울특별시 송파구 잠실동 196-8, 127.07941893995232, 37.50870875615268, 천지천 매장 설명입니다. 여러분 남은 기간동안 화이팅 합시다. 치소맥 먹고 싶네요~
3,홀리차우 롯데월드점, 02-411-0688, 서울특별시 송파구 잠실동 40-1 롯데월드 스포츠동, 127.09656318260087, 37.51085028774991, 홀리차우 롯데월드점 매장 설명입니다. 여러분 남은 기간동안 화이팅 합시다. 치소맥 먹고 싶네요~
3,서린, 02-413-2240, 서울특별시 송파구 잠실동 27-2, 127.09351167373595, 37.51626032209082, 서린 매장 설명입니다. 여러분 남은 기간동안 화이팅 합시다. 치소맥 먹고 싶네요~
3,신천마라샹궈, 02-415-9225, 서울특별시 송파구 잠실동 207-7 1층, 127.08493661757373, 37.50980580312937, 신천마라샹궈 매장 설명입니다. 여러분 남은 기간동안 화이팅 합시다. 치소맥 먹고 싶네요~
3,리밍, 050-8439-0033, 서울특별시 송파구 잠실동 199 2층, 127.08086941832823, 37.5094138490948, 리밍 매장 설명입니다. 여러분 남은 기간동안 화이팅 합시다. 치소맥 먹고 싶네요~
3,짬뽕타임 잠실점, 02-423-0707, 서울특별시 송파구 잠실동 250-5, 127.08777964803019, 37.50482688729518, 짬뽕타임 잠실점 매장 설명입니다. 여러분 남은 기간동안 화이팅 합시다. 치소맥 먹고 싶네요~
3,신천양꼬치, 02-420-6828, 서울특별시 송파구 잠실동 204-13, 127.08291498267121, 37.50955587289601, 신천양꼬치 매장 설명입니다. 여러분 남은 기간동안 화이팅 합시다. 치소맥 먹고 싶네요~
3,중화요리해원, 050-7957-8602, 서울특별시 송파구 잠실동 276, 127.08516446633459, 37.51060049612352, 중화요리해원 매장 설명입니다. 여러분 남은 기간동안 화이팅 합시다. 치소맥 먹고 싶네요~
3,일선화, 02-413-2247, 서울특별시 송파구 잠실동 313-9, 127.0828838005872, 37.50562701873686, 일선화 매장 설명입니다. 여러분 남은 기간동안 화이팅 합시다. 치소맥 먹고 싶네요~
3,하오차이나, 02-418-1101, 서울특별시 송파구 잠실동 207-17 1F, 127.08526515771109, 37.509763291143926, 하오차이나 매장 설명입니다. 여러분 남은 기간동안 화이팅 합시다. 치소맥 먹고 싶네요~
1,네네치킨 잠실본점, 050-4898-9223, 서울특별시 송파구 잠실동 202-14 1층 네네치킨, 127.08199997480673, 37.50945867008654, 네네치킨 잠실본점 매장 설명입니다. 여러분 남은 기간동안 화이팅 합시다. 치소맥 먹고 싶네요~
1,굽네치킨 잠실2호점, 050-4457-9289, 서울특별시 송파구 잠실동 44-3 레이크팰리스아파트상가 135호, 127.0926327140796, 37.507558374609125, 굽네치킨 잠실2호점 매장 설명입니다. 여러분 남은 기간동안 화이팅 합시다. 치소맥 먹고 싶네요~
1,페리카나 잠실새마을점, 050-4898-9062, 서울특별시 송파구 잠실동 183-1 1층 106호, 127.08332693976779, 37.51101877901657, 페리카나 잠실새마을점 매장 설명입니다. 여러분 남은 기간동안 화이팅 합시다. 치소맥 먹고 싶네요~
1,솜리치킨, 02-412-9292, 서울특별시 송파구 잠실동 192-13, 127.08103686206249, 37.50959536146316, 솜리치킨 매장 설명입니다. 여러분 남은 기간동안 화이팅 합시다. 치소맥 먹고 싶네요~
1,또래오래 송파잠실본점, 050-8028-5173, 서울특별시 송파구 잠실동 223-28, 127.08131787617275, 37.50696645568588, 또래오래 송파잠실본점 매장 설명입니다. 여러분 남은 기간동안 화이팅 합시다. 치소맥 먹고 싶네요~
1,교촌치킨 잠실1호점, 02-416-9939, 서울특별시 송파구 잠실동 313-8, 127.08265662178209, 37.50570635257589, 교촌치킨 잠실1호점 매장 설명입니다. 여러분 남은 기간동안 화이팅 합시다. 치소맥 먹고 싶네요~
1,고군닭강정, 02-412-8895, 서울특별시 송파구 잠실동 227-10 1층, 127.08313181418134, 37.50662010511672, 고군닭강정 매장 설명입니다. 여러분 남은 기간동안 화이팅 합시다. 치소맥 먹고 싶네요~
1,BBQ치킨 잠실엘스점, 02-416-0850, 서울특별시 송파구 잠실동 19-9, 127.08472852372964, 37.512029805345314, BBQ치킨 잠실엘스점 매장 설명입니다. 여러분 남은 기간동안 화이팅 합시다. 치소맥 먹고 싶네요~
1,미쳐버린파닭, 02-416-9293, 서울특별시 송파구 잠실동 240-15, 127.08587576975545, 37.50792084243235, 미쳐버린파닭 매장 설명입니다. 여러분 남은 기간동안 화이팅 합시다. 치소맥 먹고 싶네요~
1,오븐에빠진닭 신천점, 02-422-5892, 서울특별시 송파구 잠실동 190-3, 127.08182239094083, 37.51010605327386, 오븐에빠진닭 신천점 매장 설명입니다. 여러분 남은 기간동안 화이팅 합시다. 치소맥 먹고 싶네요~
1,노랑통닭 신천점, 02-414-0604, 서울특별시 송파구 잠실동 192-12, 127.08105921165236, 37.51054164535249, 노랑통닭 신천점 매장 설명입니다. 여러분 남은 기간동안 화이팅 합시다. 치소맥 먹고 싶네요~
1,치킨매니아 잠실3호점, 02-2202-9255, 서울특별시 송파구 잠실동 200-5, 127.08132203765219, 37.50939934379977, 치킨매니아 잠실3호점 매장 설명입니다. 여러분 남은 기간동안 화이팅 합시다. 치소맥 먹고 싶네요~
1,네네치킨 잠실엘스리센츠점, 02-415-4479, 서울특별시 송파구 잠실동 19-9 파인애플상가 지하1층 A176호, 127.08347120212886, 37.512173250206644, 네네치킨 잠실엘스리센츠점 매장 설명입니다. 여러분 남은 기간동안 화이팅 합시다. 치소맥 먹고 싶네요~
1,굽네치킨 잠실본점, 02-417-9290, 서울특별시 송파구 잠실동 222-10, 127.0811506580215, 37.50676692425926, 굽네치킨 잠실본점 매장 설명입니다. 여러분 남은 기간동안 화이팅 합시다. 치소맥 먹고 싶네요~
1,멕시카나 신천점, 02-416-8892, 서울특별시 송파구 잠실동 207-13, 127.08517753206279, 37.509528338532725, 멕시카나 신천점 매장 설명입니다. 여러분 남은 기간동안 화이팅 합시다. 치소맥 먹고 싶네요~
1,쌀통닭 신천점, 050-4458-4998, 서울특별시 송파구 잠실동 191, 127.08131868332092, 37.51059772413287, 쌀통닭 신천점 매장 설명입니다. 여러분 남은 기간동안 화이팅 합시다. 치소맥 먹고 싶네요~
1,야구에한맺힌닭, 02-2203-1470, 서울특별시 송파구 잠실동 210-45, 127.0862891868365, 37.50833852296919, 야구에한맺힌닭 매장 설명입니다. 여러분 남은 기간동안 화이팅 합시다. 치소맥 먹고 싶네요~
1,호식이두마리치킨 잠실1호점, 02-443-9922, 서울특별시 송파구 잠실동 231, 127.08394575915977, 37.50758153219534, 호식이두마리치킨 잠실1호점 매장 설명입니다. 여러분 남은 기간동안 화이팅 합시다. 치소맥 먹고 싶네요~
1,둘둘치킨 신천역점, 02-415-2279, 서울특별시 송파구 잠실동 208, 127.08529887088632, 37.51070966236668, 둘둘치킨 신천역점 매장 설명입니다. 여러분 남은 기간동안 화이팅 합시다. 치소맥 먹고 싶네요~
1,60계 신천점, 02-415-3429, 서울특별시 송파구 잠실동 211-41, 127.08543205970133, 37.50906175652326, 60계 신천점 매장 설명입니다. 여러분 남은 기간동안 화이팅 합시다. 치소맥 먹고 싶네요~
1,바로화덕치킨 잠실신천점, 02-424-8592, 서울특별시 송파구 잠실동 188-4, 127.08285248872866, 37.510041959484454, 바로화덕치킨 잠실신천점 매장 설명입니다. 여러분 남은 기간동안 화이팅 합시다. 치소맥 먹고 싶네요~
1,한앤둘치킨 잠실야구장점, 070-8879-1279, 서울특별시 송파구 잠실동 10, 127.07306724762404, 37.516543401159886, 한앤둘치킨 잠실야구장점 매장 설명입니다. 여러분 남은 기간동안 화이팅 합시다. 치소맥 먹고 싶네요~
1,이화덕치킨, 1644-8295, 서울특별시 송파구 잠실동 225-1, 127.08192396739952, 37.50734960519401, 이화덕치킨 매장 설명입니다. 여러분 남은 기간동안 화이팅 합시다. 치소맥 먹고 싶네요~
1,김판조닭강정 잠실점, 02-421-4792, 서울특별시 송파구 잠실동 213-56, 127.0841001263173, 37.50883519789757, 김판조닭강정 잠실점 매장 설명입니다. 여러분 남은 기간동안 화이팅 합시다. 치소맥 먹고 싶네요~
1,처갓집양념통닭 신천점, 02-423-5183, 서울특별시 송파구 잠실동 185-9 1층, 127.08494199716543, 37.510292415879256, 처갓집양념통닭 신천점 매장 설명입니다. 여러분 남은 기간동안 화이팅 합시다. 치소맥 먹고 싶네요~
1,뿔레치킨 잠실점, 070-4001-4159, 서울특별시 송파구 잠실동 204-9, 127.08318895335432, 37.50935075325341, 뿔레치킨 잠실점 매장 설명입니다. 여러분 남은 기간동안 화이팅 합시다. 치소맥 먹고 싶네요~
1,호치킨하우스 신천점, 02-415-5727, 서울특별시 송파구 잠실동 218-7, 127.08345887243195, 37.50855090345822, 호치킨하우스 신천점 매장 설명입니다. 여러분 남은 기간동안 화이팅 합시다. 치소맥 먹고 싶네요~
1,보드람치킨 잠실점, 02-417-6842, 서울특별시 송파구 잠실동 205-3, 127.08349564241836, 37.50924500279517, 보드람치킨 잠실점 매장 설명입니다. 여러분 남은 기간동안 화이팅 합시다. 치소맥 먹고 싶네요~
1,깐부치킨 신천역점, 02-418-0810, 서울특별시 송파구 잠실동 179-3 1층, 127.0809999034643, 37.51076644894827, 깐부치킨 신천역점 매장 설명입니다. 여러분 남은 기간동안 화이팅 합시다. 치소맥 먹고 싶네요~
1,치르치르 신천점, 02-415-5129, 서울특별시 송파구 잠실동 191-1, 127.0813204474932, 37.51045356865715, 치르치르 신천점 매장 설명입니다. 여러분 남은 기간동안 화이팅 합시다. 치소맥 먹고 싶네요~
1,불로만숯불바베큐 신천점, 02-415-9055, 서울특별시 송파구 잠실동 237-6, 127.08690447312922, 37.50610864931188, 불로만숯불바베큐 신천점 매장 설명입니다. 여러분 남은 기간동안 화이팅 합시다. 치소맥 먹고 싶네요~
1,갈라치킨 신천2호점, 02-412-3345, 서울특별시 송파구 잠실동 189-13, 127.08226051002147, 37.51035273852129, 갈라치킨 신천2호점 매장 설명입니다. 여러분 남은 기간동안 화이팅 합시다. 치소맥 먹고 싶네요~
1,또래오래 해피존1호점, 02-412-1332, 서울특별시 송파구 잠실동 1-1 한강시민공원, 127.0888019972667, 37.518440736996936, 또래오래 해피존1호점 매장 설명입니다. 여러분 남은 기간동안 화이팅 합시다. 치소맥 먹고 싶네요~
1,림스치킨 잠실점, 02-2202-1175, 서울특별시 송파구 잠실동 27-2, 127.09352287596164, 37.51626941850756, 림스치킨 잠실점 매장 설명입니다. 여러분 남은 기간동안 화이팅 합시다. 치소맥 먹고 싶네요~
1,또래오래 해피존3호점, 02-424-1177, 서울특별시 송파구 잠실동 1-1 한강시민공원, 127.0888019972667, 37.518440736996936, 또래오래 해피존3호점 매장 설명입니다. 여러분 남은 기간동안 화이팅 합시다. 치소맥 먹고 싶네요~
1,투윙닭강정 잠실점, 02-416-4578, 서울특별시 송파구 잠실동 213-29, 127.08396495729406, 37.508789098409714, 투윙닭강정 잠실점 매장 설명입니다. 여러분 남은 기간동안 화이팅 합시다. 치소맥 먹고 싶네요~
1,딜리셔치킨, 070-4980-0073, 서울특별시 송파구 잠실동 85-1 1층, 127.07662186025922, 37.50897529464637, 딜리셔치킨 매장 설명입니다. 여러분 남은 기간동안 화이팅 합시다. 치소맥 먹고 싶네요~
1,또래오래 해피존2호점, 02-412-1856, 서울특별시 송파구 잠실동 1-1 잠실한강시민공원, 127.0888019972667, 37.518440736996936, 또래오래 해피존2호점 매장 설명입니다. 여러분 남은 기간동안 화이팅 합시다. 치소맥 먹고 싶네요~
1,SR프랜차이즈, 02-422-0085, 서울특별시 송파구 잠실동 195-1 3층 303호, 127.07955949280425, 37.51016055225525, SR프랜차이즈 매장 설명입니다. 여러분 남은 기간동안 화이팅 합시다. 치소맥 먹고 싶네요~
1,한앤둘치킨 신천직영점, 010-9788-1556, 서울특별시 송파구 잠실동 191, 127.08132999347029, 37.51059781196691, 한앤둘치킨 신천직영점 매장 설명입니다. 여러분 남은 기간동안 화이팅 합시다. 치소맥 먹고 싶네요~
1,진불닭, 02-412-4085, 서울특별시 송파구 잠실동 186-2 2층, 127.08394901607022, 37.510095508614825, 진불닭 매장 설명입니다. 여러분 남은 기간동안 화이팅 합시다. 치소맥 먹고 싶네요~
1,한앤둘치킨 신천점, 02-421-1279, 서울특별시 송파구 잠실동 191, 127.08132999347029, 37.51059781196691, 한앤둘치킨 신천점 매장 설명입니다. 여러분 남은 기간동안 화이팅 합시다. 치소맥 먹고 싶네요~
1,가마로강정 신천역점, 02-416-0898, 서울특별시 송파구 잠실동 209-1, 127.0864960704595, 37.508997893022915, 가마로강정 신천역점 매장 설명입니다. 여러분 남은 기간동안 화이팅 합시다. 치소맥 먹고 싶네요~
1,롯데리아 새나라점, 02-411-0621, 서울특별시 송파구 잠실동 40-1, 127.09797100803156, 37.51135661291886, 롯데리아 새나라점 매장 설명입니다. 여러분 남은 기간동안 화이팅 합시다. 치소맥 먹고 싶네요~
1,롯데리아 월드점점, 02-3431-7166, 서울특별시 송파구 잠실동 40-1 롯데월드 스포츠센타 1층, 127.09797100803156, 37.51135661291886, 롯데리아 월드점점 매장 설명입니다. 여러분 남은 기간동안 화이팅 합시다. 치소맥 먹고 싶네요~
1,롯데리아 월드프라자점, 02-3431-6634, 서울특별시 송파구 잠실동 40-1 롯데월드 쇼핑몰지하1층, 127.09797100803156, 37.51135661291886, 롯데리아 월드프라자점 매장 설명입니다. 여러분 남은 기간동안 화이팅 합시다. 치소맥 먹고 싶네요~
1,롯데리아 언더랜드점, 02-411-0539, 서울특별시 송파구 잠실동 40-1 롯데월드 Y-39호, 127.09805061325847, 37.511321177552574, 롯데리아 언더랜드점 매장 설명입니다. 여러분 남은 기간동안 화이팅 합시다. 치소맥 먹고 싶네요~
1,핫플레이스, 02-2203-2505, 서울특별시 송파구 잠실동 180-8 3층, 127.08167752201136, 37.51085280638383, 핫플레이스 매장 설명입니다. 여러분 남은 기간동안 화이팅 합시다. 치소맥 먹고 싶네요~
1,T.G.I.프라이데이스 잠실점, 02-2143-1725, 서울특별시 송파구 잠실동 40-1 롯데월드 쇼핑몰 2층, 127.09727496911711, 37.51091879555324, T.G.I.프라이데이스 잠실점 매장 설명입니다. 여러분 남은 기간동안 화이팅 합시다. 치소맥 먹고 싶네요~
1,잠실 영양센터, 02-414-4888, 서울특별시 송파구 잠실동 193, 127.08046231266013, 37.51032976383956, 잠실 영양센터 매장 설명입니다. 여러분 남은 기간동안 화이팅 합시다. 치소맥 먹고 싶네요~
1,쏘피, 02-412-9373, 서울특별시 송파구 잠실동 194, 127.08006910881285, 37.51011045296668, 쏘피 매장 설명입니다. 여러분 남은 기간동안 화이팅 합시다. 치소맥 먹고 싶네요~
1,카페아모제 롯데잠실점, 02-2143-7069, 서울특별시 송파구 잠실동 40-1 롯데백화점 지하 1층, 127.09969100543944, 37.5122437420628, 카페아모제 롯데잠실점 매장 설명입니다. 여러분 남은 기간동안 화이팅 합시다. 치소맥 먹고 싶네요~
1,와바 신천2호점, 02-418-1488, 서울특별시 송파구 잠실동 208-1 2층, 127.08533543610852, 37.510493691269204, 와바 신천2호점 매장 설명입니다. 여러분 남은 기간동안 화이팅 합시다. 치소맥 먹고 싶네요~
1,쿱앤쿡 신천점, 02-419-3938, 서울특별시 송파구 잠실동 183-3 3층, 127.08400467348994, 37.511096113440296, 쿱앤쿡 신천점 매장 설명입니다. 여러분 남은 기간동안 화이팅 합시다. 치소맥 먹고 싶네요~
1,롯데리아 키자니아점, 070-4015-2596, 서울특별시 송파구 잠실동 40-1, 127.09797100803156, 37.51135661291886, 롯데리아 키자니아점 매장 설명입니다. 여러분 남은 기간동안 화이팅 합시다. 치소맥 먹고 싶네요~
1,뉴욕핫도그앤커피 잠실종합운동장점, 02-2203-8147, 서울특별시 송파구 잠실동 10-1 잠실종합운동장 잠실실내수영장 내 뉴욕핫도그앤커피, 127.07569685593737, 37.514284305971174, 뉴욕핫도그앤커피 잠실종합운동장점 매장 설명입니다. 여러분 남은 기간동안 화이팅 합시다. 치소맥 먹고 싶네요~
2,피자헛 잠실2호점, 02-421-5613, 서울특별시 송파구 잠실동 175-9, 127.07977001087238, 37.51144169131415, 피자헛 잠실2호점 매장 설명입니다. 여러분 남은 기간동안 화이팅 합시다. 치소맥 먹고 싶네요~
2,도미노피자 잠실본점, 02-1577-3082, 서울특별시 송파구 잠실동 336-3, 127.08709449124501, 37.504434146945535, 도미노피자 잠실본점 매장 설명입니다. 여러분 남은 기간동안 화이팅 합시다. 치소맥 먹고 싶네요~
2,미스터피자 잠실점, 02-422-8554, 서울특별시 송파구 잠실동 181-10, 127.0828024865077, 37.511357115646334, 미스터피자 잠실점 매장 설명입니다. 여러분 남은 기간동안 화이팅 합시다. 치소맥 먹고 싶네요~
2,파파존스 잠실점, 02-414-4621, 서울특별시 송파구 잠실동 314-10, 127.08476786180054, 37.50509196408368, 파파존스 잠실점 매장 설명입니다. 여러분 남은 기간동안 화이팅 합시다. 치소맥 먹고 싶네요~
2,피자드림, 02-421-9987, 서울특별시 송파구 잠실동 22-6 리센츠상가 1층 A3호, 127.08638983367382, 37.51215077448363, 피자드림 매장 설명입니다. 여러분 남은 기간동안 화이팅 합시다. 치소맥 먹고 싶네요~
2,빨간모자피자 잠실본점, 02-418-7071, 서울특별시 송파구 잠실동 336-8 101호, 127.0873380084485, 37.50394044354752, 빨간모자피자 잠실본점 매장 설명입니다. 여러분 남은 기간동안 화이팅 합시다. 치소맥 먹고 싶네요~
2,피자알볼로 잠실1호점, 02-424-8495, 서울특별시 송파구 잠실동 314-8, 127.08403011754615, 37.50530250829824, 피자알볼로 잠실1호점 매장 설명입니다. 여러분 남은 기간동안 화이팅 합시다. 치소맥 먹고 싶네요~
2,도미노피자 잠실야구장점, 02-1577-3082, 서울특별시 송파구 잠실동 10, 127.07114417817996, 37.51288804931987, 도미노피자 잠실야구장점 매장 설명입니다. 여러분 남은 기간동안 화이팅 합시다. 치소맥 먹고 싶네요~
2,피자몰 신천점, 02-415-4296, 서울특별시 송파구 잠실동 181 M타워 4층, 127.08112614096154, 37.511542338813136, 피자몰 신천점 매장 설명입니다. 여러분 남은 기간동안 화이팅 합시다. 치소맥 먹고 싶네요~
2,PIZZA POWER, 070-8238-3662, 서울특별시 송파구 잠실동 208 영우빌딩 2층, 127.08531029084702, 37.51070074009283, PIZZA POWER 매장 설명입니다. 여러분 남은 기간동안 화이팅 합시다. 치소맥 먹고 싶네요~
2,카니발피자 신천점, 02-421-0182, 서울특별시 송파구 잠실동 182-2 2층 카니발피자 신천점, 127.08280600922953, 37.51106880460873, 카니발피자 신천점 매장 설명입니다. 여러분 남은 기간동안 화이팅 합시다. 치소맥 먹고 싶네요~
2,올리앤 신천점, 02-424-8252, 서울특별시 송파구 잠실동 183-3 3층, 127.08400467348994, 37.511096113440296, 올리앤 신천점 매장 설명입니다. 여러분 남은 기간동안 화이팅 합시다. 치소맥 먹고 싶네요~
2,피자마루 잠실본동점, 02-422-1082, 서울특별시 송파구 잠실동 228-7, 127.08292133473542, 37.50625805041065, 피자마루 잠실본동점 매장 설명입니다. 여러분 남은 기간동안 화이팅 합시다. 치소맥 먹고 싶네요~
2,주주피자, 02-420-7174, 서울특별시 송파구 잠실동 19 잠실엘스 파인애플상가 지하1층 식당가, 127.07945911869527, 37.514656045379766, 주주피자 매장 설명입니다. 여러분 남은 기간동안 화이팅 합시다. 치소맥 먹고 싶네요~
2,이태리하우스 잠실 1호점, 02-416-8483, 서울특별시 송파구 잠실동 213-6, 127.08368814849058, 37.50830038341355, 이태리하우스 잠실 1호점 매장 설명입니다. 여러분 남은 기간동안 화이팅 합시다. 치소맥 먹고 싶네요~
2,한올림피자, 02-3431-4242, 서울특별시 송파구 잠실동 222-2 2층, 127.07969541287139, 37.50737734205458, 한올림피자 매장 설명입니다. 여러분 남은 기간동안 화이팅 합시다. 치소맥 먹고 싶네요~
2,한올림명품임실피자 송파점, 02-420-4540, 서울특별시 송파구 잠실동 35-2 트리지움상가 롯데슈퍼 내, 127.08631722582354, 37.510681489896896, 한올림명품임실피자 송파점 매장 설명입니다. 여러분 남은 기간동안 화이팅 합시다. 치소맥 먹고 싶네요~
2,이태리피자, 02-421-9285, 서울특별시 송파구 잠실동 249-14 지하1층, 127.08775133721117, 37.50529521945923, 이태리피자 매장 설명입니다. 여러분 남은 기간동안 화이팅 합시다. 치소맥 먹고 싶네요~
2,코바코 잠실본동점, 050-7465-3772, 서울특별시 송파구 잠실동 314-8 1층, 127.08403011754615, 37.50530250829824, 코바코 잠실본동점 매장 설명입니다. 여러분 남은 기간동안 화이팅 합시다. 치소맥 먹고 싶네요~
2,에이프릴마켓, 02-2143-1858, 서울특별시 송파구 잠실동 40-1 롯데백화점 잠실점 신관 지하1층, 127.09801679058238, 37.51131190908788, 에이프릴마켓 매장 설명입니다. 여러분 남은 기간동안 화이팅 합시다. 치소맥 먹고 싶네요~
2,요리하는남자, 02-419-1511, 서울특별시 송파구 잠실동 180-9 반석빌딩 지하 1층, 127.08189186464408, 37.510899522992645, 요리하는남자 매장 설명입니다. 여러분 남은 기간동안 화이팅 합시다. 치소맥 먹고 싶네요~
2,르카페, 02-6426-8882, 서울특별시 송파구 잠실동 336-5 포스코더샵 101호, 127.08728915771161, 37.504237416049854, 르카페 매장 설명입니다. 여러분 남은 기간동안 화이팅 합시다. 치소맥 먹고 싶네요~
2,보나베띠 잠실신천점, 02-423-3520, 서울특별시 송파구 잠실동 184-2 신원빌딩 2층, 127.08362714636715, 37.51144460191901, 보나베띠 잠실신천점 매장 설명입니다. 여러분 남은 기간동안 화이팅 합시다. 치소맥 먹고 싶네요~
2,드 딜라이트, 02-424-6109, 서울특별시 송파구 잠실동 177-5 1층, 127.07999164186873, 37.51089377033905, 드 딜라이트 매장 설명입니다. 여러분 남은 기간동안 화이팅 합시다. 치소맥 먹고 싶네요~
2,알루메, 02-421-1126, 서울특별시 송파구 잠실동 204, 127.0828786311447, 37.509753823747374, 알루메 매장 설명입니다. 여러분 남은 기간동안 화이팅 합시다. 치소맥 먹고 싶네요~
2,쏘피, 02-412-9373, 서울특별시 송파구 잠실동 194, 127.08006910881285, 37.51011045296668, 쏘피 매장 설명입니다. 여러분 남은 기간동안 화이팅 합시다. 치소맥 먹고 싶네요~
2,보나베띠 롯데월드점, 02-2143-1102, 서울특별시 송파구 잠실동 40-1 B1층 롯데월드 어드벤처, 127.09797100803156, 37.51135661291886, 보나베띠 롯데월드점 매장 설명입니다. 여러분 남은 기간동안 화이팅 합시다. 치소맥 먹고 싶네요~
2,블루워터 신천직영점, 02-420-7273, 서울특별시 송파구 잠실동 191-1 지하1층, 127.08129848881575, 37.5103993346828, 블루워터 신천직영점 매장 설명입니다. 여러분 남은 기간동안 화이팅 합시다. 치소맥 먹고 싶네요~
2,폴, 02-413-3392, 서울특별시 송파구 잠실동 192-5, 127.08098952643209, 37.50976619465255, 폴 매장 설명입니다. 여러분 남은 기간동안 화이팅 합시다. 치소맥 먹고 싶네요~
2,에스파체, 02-422-5424, 서울특별시 송파구 잠실동 189-10 2층, 127.08250779092762, 37.51048080471074, 에스파체 매장 설명입니다. 여러분 남은 기간동안 화이팅 합시다. 치소맥 먹고 싶네요~
2,그놈의버거, 02-422-1425, 서울특별시 송파구 잠실동 241-4 1층, 127.08757705220216, 37.50753751075698, 그놈의버거 매장 설명입니다. 여러분 남은 기간동안 화이팅 합시다. 치소맥 먹고 싶네요~
2,삼청동궁물떡복이 잠실롯데월드점, 1566-6352, 서울특별시 송파구 잠실동 40-1, 127.09646153106237, 37.511777601371946, 삼청동궁물떡복이 잠실롯데월드점 매장 설명입니다. 여러분 남은 기간동안 화이팅 합시다. 치소맥 먹고 싶네요~
2,쿱앤쿡 신천점, 02-419-3938, 서울특별시 송파구 잠실동 183-3 3층, 127.08400467348994, 37.511096113440296, 쿱앤쿡 신천점 매장 설명입니다. 여러분 남은 기간동안 화이팅 합시다. 치소맥 먹고 싶네요~
2,호구비어, 02-420-2423, 서울특별시 송파구 잠실동 178-4, 127.08057088935672, 37.51070004127545, 호구비어 매장 설명입니다. 여러분 남은 기간동안 화이팅 합시다. 치소맥 먹고 싶네요~
